{
  "type": "FeatureCollection",
  "features": [
    {
      "type": "Feature",
      "properties": {
        "norad_id": 36744,
        "name": "COMS 1",
        "group": "weather",
        "lat": -3.301264942228438,
        "lon": -53.55025986874252,
        "alt_km": 35783.61324017256,
        "timestamp": "2025-12-27T05:29:38.836696+00:00",
        "meta_object_name": "COMS 1",
        "meta_object_id": "2010-032A",
        "meta_epoch": "2025-12-25T12:42:15.782976",
        "meta_mean_motion": 1.00270082,
        "meta_eccentricity": 8.877e-05,
        "meta_inclination": 4.3689,
        "meta_ra_of_asc_node": 77.8525,
        "meta_arg_of_pericenter": 213.8569,
        "meta_mean_anomaly": 121.3153,
        "meta_ephemeris_type": 0,
        "meta_classification_type": "U",
        "meta_norad_cat_id": 36744,
        "meta_element_set_no": 999,
        "meta_rev_at_epoch": 4934,
        "meta_bstar": 0,
        "meta_mean_motion_dot": -3.24e-06,
        "meta_mean_motion_ddot": 0,
        "tle_line1": "1 36744U 10032A   25359.52934934 -.00000324  00000+0  00000+0 0  9991",
        "tle_line2": "2 36744   4.3689  77.8525 0000887 213.8569 121.3153  1.00270082 49343"
      },
      "geometry": {
        "type": "Point",
        "coordinates": [
          -53.55025986874252,
          -3.301264942228438
        ]
      }
    },
    {
      "type": "Feature",
      "properties": {
        "norad_id": 37214,
        "name": "FENGYUN 3B",
        "group": "weather",
        "lat": -9.084860966868774,
        "lon": 42.75601064160332,
        "alt_km": 834.310802534922,
        "timestamp": "2025-12-27T05:29:38.836707+00:00",
        "meta_object_name": "FENGYUN 3B",
        "meta_object_id": "2010-059A",
        "meta_epoch": "2025-12-26T23:18:34.282368",
        "meta_mean_motion": 14.14794007,
        "meta_eccentricity": 0.00214199,
        "meta_inclination": 98.9887,
        "meta_ra_of_asc_node": 41.0463,
        "meta_arg_of_pericenter": 316.7949,
        "meta_mean_anomaly": 162.2237,
        "meta_ephemeris_type": 0,
        "meta_classification_type": "U",
        "meta_norad_cat_id": 37214,
        "meta_element_set_no": 999,
        "meta_rev_at_epoch": 78307,
        "meta_bstar": 5.5123545e-05,
        "meta_mean_motion_dot": 6.1e-07,
        "meta_mean_motion_ddot": 0,
        "tle_line1": "1 37214U 10059A   25360.97123012  .00000061  00000+0  55124-4 0  9990",
        "tle_line2": "2 37214  98.9887  41.0463 0021419 316.7949 162.2237 14.14794007783077"
      },
      "geometry": {
        "type": "Point",
        "coordinates": [
          42.75601064160332,
          -9.084860966868774
        ]
      }
    },
    {
      "type": "Feature",
      "properties": {
        "norad_id": 37849,
        "name": "SUOMI NPP",
        "group": "weather",
        "lat": 74.67340806051368,
        "lon": -95.88012925477284,
        "alt_km": 818.0901206622302,
        "timestamp": "2025-12-27T05:29:38.836718+00:00",
        "meta_object_name": "SUOMI NPP",
        "meta_object_id": "2011-061A",
        "meta_epoch": "2025-12-22T15:10:21.732672",
        "meta_mean_motion": 14.19516903,
        "meta_eccentricity": 0.00024883,
        "meta_inclination": 98.7787,
        "meta_ra_of_asc_node": 293.8852,
        "meta_arg_of_pericenter": 103.0781,
        "meta_mean_anomaly": 257.0673,
        "meta_ephemeris_type": 0,
        "meta_classification_type": "U",
        "meta_norad_cat_id": 37849,
        "meta_element_set_no": 999,
        "meta_rev_at_epoch": 73339,
        "meta_bstar": 6.3406935e-05,
        "meta_mean_motion_dot": 8.9e-07,
        "meta_mean_motion_ddot": 0,
        "tle_line1": "1 37849U 11061A   25356.63219598  .00000089  00000+0  63407-4 0  9994",
        "tle_line2": "2 37849  98.7787 293.8852 0002488 103.0781 257.0673 14.19516903733392"
      },
      "geometry": {
        "type": "Point",
        "coordinates": [
          -95.88012925477284,
          74.67340806051368
        ]
      }
    },
    {
      "type": "Feature",
      "properties": {
        "norad_id": 38552,
        "name": "METEOSAT-10 (MSG-3)",
        "group": "weather",
        "lat": 3.8036947715478306,
        "lon": 178.67460100443105,
        "alt_km": 35792.265976954644,
        "timestamp": "2025-12-27T05:29:38.836731+00:00",
        "meta_object_name": "METEOSAT-10 (MSG-3)",
        "meta_object_id": "2012-035B",
        "meta_epoch": "2025-12-25T19:55:02.807904",
        "meta_mean_motion": 1.00266624,
        "meta_eccentricity": 0.0001479,
        "meta_inclination": 4.2575,
        "meta_ra_of_asc_node": 61.6862,
        "meta_arg_of_pericenter": 265.3349,
        "meta_mean_anomaly": 66.5982,
        "meta_ephemeris_type": 0,
        "meta_classification_type": "U",
        "meta_norad_cat_id": 38552,
        "meta_element_set_no": 999,
        "meta_rev_at_epoch": 4911,
        "meta_bstar": 0,
        "meta_mean_motion_dot": 1.4e-07,
        "meta_mean_motion_ddot": 0,
        "tle_line1": "1 38552U 12035B   25359.82989361  .00000014  00000+0  00000+0 0  9997",
        "tle_line2": "2 38552   4.2575  61.6862 0001479 265.3349  66.5982  1.00266624 49118"
      },
      "geometry": {
        "type": "Point",
        "coordinates": [
          178.67460100443105,
          3.8036947715478306
        ]
      }
    },
    {
      "type": "Feature",
      "properties": {
        "norad_id": 38771,
        "name": "METOP-B",
        "group": "weather",
        "lat": 27.751726236111793,
        "lon": 46.331417482906446,
        "alt_km": 819.1708885216813,
        "timestamp": "2025-12-27T05:29:38.836742+00:00",
        "meta_object_name": "METOP-B",
        "meta_object_id": "2012-049A",
        "meta_epoch": "2025-12-26T22:36:16.783488",
        "meta_mean_motion": 14.21413767,
        "meta_eccentricity": 0.00033084,
        "meta_inclination": 98.678,
        "meta_ra_of_asc_node": 50.6585,
        "meta_arg_of_pericenter": 114.8079,
        "meta_mean_anomaly": 245.3443,
        "meta_ephemeris_type": 0,
        "meta_classification_type": "U",
        "meta_norad_cat_id": 38771,
        "meta_element_set_no": 999,
        "meta_rev_at_epoch": 68879,
        "meta_bstar": 8.8412243e-05,
        "meta_mean_motion_dot": 1.5e-06,
        "meta_mean_motion_ddot": 0,
        "tle_line1": "1 38771U 12049A   25360.94186092  .00000150  00000+0  88412-4 0  9999",
        "tle_line2": "2 38771  98.6780  50.6585 0003308 114.8079 245.3443 14.21413767688798"
      },
      "geometry": {
        "type": "Point",
        "coordinates": [
          46.331417482906446,
          27.751726236111793
        ]
      }
    },
    {
      "type": "Feature",
      "properties": {
        "norad_id": 39216,
        "name": "INSAT-3D",
        "group": "weather",
        "lat": -1.0283002706333697,
        "lon": -52.06455048792444,
        "alt_km": 35782.195623624444,
        "timestamp": "2025-12-27T05:29:38.836753+00:00",
        "meta_object_name": "INSAT-3D",
        "meta_object_id": "2013-038B",
        "meta_epoch": "2025-12-26T22:12:35.823168",
        "meta_mean_motion": 1.00273097,
        "meta_eccentricity": 0.00019753,
        "meta_inclination": 1.4796,
        "meta_ra_of_asc_node": 84.8346,
        "meta_arg_of_pericenter": 159.2088,
        "meta_mean_anomaly": 314.3238,
        "meta_ephemeris_type": 0,
        "meta_classification_type": "U",
        "meta_norad_cat_id": 39216,
        "meta_element_set_no": 999,
        "meta_rev_at_epoch": 4535,
        "meta_bstar": 0,
        "meta_mean_motion_dot": -3.17e-06,
        "meta_mean_motion_ddot": 0,
        "tle_line1": "1 39216U 13038B   25360.92541462 -.00000317  00000+0  00000+0 0  9995",
        "tle_line2": "2 39216   1.4796  84.8346 0001975 159.2088 314.3238  1.00273097 45358"
      },
      "geometry": {
        "type": "Point",
        "coordinates": [
          -52.06455048792444,
          -1.0283002706333697
        ]
      }
    },
    {
      "type": "Feature",
      "properties": {
        "norad_id": 39260,
        "name": "FENGYUN 3C",
        "group": "weather",
        "lat": -22.440988430300283,
        "lon": -18.266384725907493,
        "alt_km": 856.1271051648455,
        "timestamp": "2025-12-27T05:29:38.836765+00:00",
        "meta_object_name": "FENGYUN 3C",
        "meta_object_id": "2013-052A",
        "meta_epoch": "2025-12-26T22:48:59.355072",
        "meta_mean_motion": 14.15700585,
        "meta_eccentricity": 0.00150769,
        "meta_inclination": 98.478,
        "meta_ra_of_asc_node": 337.9372,
        "meta_arg_of_pericenter": 155.2012,
        "meta_mean_anomaly": 204.989,
        "meta_ephemeris_type": 0,
        "meta_classification_type": "U",
        "meta_norad_cat_id": 39260,
        "meta_element_set_no": 999,
        "meta_rev_at_epoch": 63419,
        "meta_bstar": 7.7586581e-05,
        "meta_mean_motion_dot": 1.11e-06,
        "meta_mean_motion_ddot": 0,
        "tle_line1": "1 39260U 13052A   25360.95068698  .00000111  00000+0  77587-4 0  9998",
        "tle_line2": "2 39260  98.4780 337.9372 0015076 155.2012 204.9890 14.15700585634198"
      },
      "geometry": {
        "type": "Point",
        "coordinates": [
          -18.266384725907493,
          -22.440988430300283
        ]
      }
    }
  ]
}